start=new Date('2023-03-13T00:00:00.000Z').valueOf();
sats=[{"MEAN_MOTION_DOT":"0.00028285","EPHEMERIS_TYPE":"0","ELEMENT_SET_NO":"999","MEAN_MOTION_DDOT":"0.0000000000000","MEAN_ELEMENT_THEORY":"SGP4","REF_FRAME":"TEME","EPOCH":"2023-03-12T18:36:50.258016","RA_OF_ASC_NODE":"345.4072","TLE_LINE2":"2 52583  53.2162 345.4072 0001417  77.3723 282.7427 15.08874442 46590","SEMIMAJOR_AXIS":"6917.775","DECAY_DATE":null,"ECCENTRICITY":"0.00014170","MEAN_ANOMALY":"282.7427","OBJECT_TYPE":"PAYLOAD","CENTER_NAME":"EARTH","BSTAR":"0.00178650000000","TLE_LINE1":"1 52583U 22051AZ  23071.77558169  .00028285  00000-0  17865-2 0  9998","REV_AT_EPOCH":"4659","PERIOD":"95.435","MEAN_MOTION":"15.08874442","NORAD_CAT_ID":"52583","COUNTRY_CODE":"US","FILE":"3858743","OBJECT_ID":"2022-051AZ","APOAPSIS":"540.620","TIME_SYSTEM":"UTC","ARG_OF_PERICENTER":"77.3723","PERIAPSIS":"538.660","CLASSIFICATION_TYPE":"U","SITE":"AFWTR","RCS_SIZE":"LARGE","GP_ID":"227964185","OBJECT_NAME":"STARLINK-3895","INCLINATION":"53.2162","LAUNCH_DATE":"2022-05-13"},{"NORAD_CAT_ID":"52584","COUNTRY_CODE":"US","FILE":"3858743","OBJECT_ID":"2022-051BA","TIME_SYSTEM":"UTC","APOAPSIS":"540.801","ARG_OF_PERICENTER":"102.7684","SITE":"AFWTR","CLASSIFICATION_TYPE":"U","RCS_SIZE":"LARGE","PERIAPSIS":"538.547","INCLINATION":"53.2158","OBJECT_NAME":"STARLINK-3922","LAUNCH_DATE":"2022-05-13","GP_ID":"227963433","ELEMENT_SET_NO":"999","MEAN_MOTION_DOT":"0.00021257","EPHEMERIS_TYPE":"0","MEAN_MOTION_DDOT":"0.0000000000000","MEAN_ELEMENT_THEORY":"SGP4","EPOCH":"2023-03-12T18:47:26.585376","REF_FRAME":"TEME","RA_OF_ASC_NODE":"345.3738","SEMIMAJOR_AXIS":"6917.809","DECAY_DATE":null,"TLE_LINE2":"2 52584  53.2158 345.3738 0001629 102.7684 257.3491 15.08863239 46599","ECCENTRICITY":"0.00016290","MEAN_ANOMALY":"257.3491","BSTAR":"0.00134880000000","TLE_LINE1":"1 52584U 22051BA  23071.78294659  .00021257  00000-0  13488-2 0  9990","OBJECT_TYPE":"PAYLOAD","CENTER_NAME":"EARTH","PERIOD":"95.436","MEAN_MOTION":"15.08863239","REV_AT_EPOCH":"4659"},{"TIME_SYSTEM":"UTC","APOAPSIS":"540.458","ARG_OF_PERICENTER":"84.4230","RCS_SIZE":"LARGE","SITE":"AFWTR","CLASSIFICATION_TYPE":"U","PERIAPSIS":"538.937","LAUNCH_DATE":"2022-05-13","INCLINATION":"53.2161","OBJECT_NAME":"STARLINK-3906","GP_ID":"227931467","NORAD_CAT_ID":"52585","FILE":"3858534","COUNTRY_CODE":"US","OBJECT_ID":"2022-051BB","DECAY_DATE":null,"SEMIMAJOR_AXIS":"6917.832","TLE_LINE2":"2 52585  53.2161 348.1195 0001099  84.4230 275.6887 15.08855672 46501","MEAN_ANOMALY":"275.6887","ECCENTRICITY":"0.00010990","TLE_LINE1":"1 52585U 22051BB  23071.17301854  .00017842  00000-0  11358-2 0  9999","BSTAR":"0.00113580000000","CENTER_NAME":"EARTH","OBJECT_TYPE":"PAYLOAD","MEAN_MOTION":"15.08855672","PERIOD":"95.437","REV_AT_EPOCH":"4650","ELEMENT_SET_NO":"999","MEAN_MOTION_DOT":"0.00017842","EPHEMERIS_TYPE":"0","MEAN_ELEMENT_THEORY":"SGP4","MEAN_MOTION_DDOT":"0.0000000000000","RA_OF_ASC_NODE":"348.1195","EPOCH":"2023-03-12T04:09:08.801856","REF_FRAME":"TEME"},{"NORAD_CAT_ID":"52586","FILE":"3858534","COUNTRY_CODE":"US","OBJECT_ID":"2022-051BC","TIME_SYSTEM":"UTC","APOAPSIS":"540.765","ARG_OF_PERICENTER":"72.8413","RCS_SIZE":"LARGE","SITE":"AFWTR","CLASSIFICATION_TYPE":"U","PERIAPSIS":"538.454","LAUNCH_DATE":"2022-05-13","INCLINATION":"53.2177","OBJECT_NAME":"STARLINK-3910","GP_ID":"227932218","ELEMENT_SET_NO":"999","MEAN_MOTION_DOT":"0.00033672","EPHEMERIS_TYPE":"0","MEAN_ELEMENT_THEORY":"SGP4","MEAN_MOTION_DDOT":"0.0000000000000","REF_FRAME":"TEME","RA_OF_ASC_NODE":"348.0954","EPOCH":"2023-03-12T04:13:04.465632","DECAY_DATE":null,"SEMIMAJOR_AXIS":"6917.744","TLE_LINE2":"2 52586  53.2177 348.0954 0001670  72.8413 287.2762 15.08884543 46500","MEAN_ANOMALY":"287.2762","ECCENTRICITY":"0.00016700","TLE_LINE1":"1 52586U 22051BC  23071.17574613  .00033672  00000-0  21211-2 0  9993","BSTAR":"0.00212110000000","CENTER_NAME":"EARTH","OBJECT_TYPE":"PAYLOAD","PERIOD":"95.435","MEAN_MOTION":"15.08884543","REV_AT_EPOCH":"4650"},{"NORAD_CAT_ID":"52587","FILE":"3858534","COUNTRY_CODE":"US","OBJECT_ID":"2022-051BD","APOAPSIS":"540.733","TIME_SYSTEM":"UTC","ARG_OF_PERICENTER":"52.4122","PERIAPSIS":"538.551","RCS_SIZE":"LARGE","CLASSIFICATION_TYPE":"U","SITE":"AFWTR","GP_ID":"227932946","LAUNCH_DATE":"2022-05-13","INCLINATION":"53.2151","OBJECT_NAME":"STARLINK-3867","EPHEMERIS_TYPE":"0","MEAN_MOTION_DOT":"0.00030377","ELEMENT_SET_NO":"999","MEAN_ELEMENT_THEORY":"SGP4","MEAN_MOTION_DDOT":"0.0000000000000","EPOCH":"2023-03-12T00:51:42.697440","REF_FRAME":"TEME","RA_OF_ASC_NODE":"348.7259","TLE_LINE2":"2 52587  53.2151 348.7259 0001577  52.4122 307.7013 15.08873863 46482","DECAY_DATE":null,"SEMIMAJOR_AXIS":"6917.777","MEAN_ANOMALY":"307.7013","ECCENTRICITY":"0.00015770","CENTER_NAME":"EARTH","OBJECT_TYPE":"PAYLOAD","TLE_LINE1":"1 52587U 22051BD  23071.03591085  .00030377  00000-0  19167-2 0  9997","BSTAR":"0.00191670000000","REV_AT_EPOCH":"4648","PERIOD":"95.435","MEAN_MOTION":"15.08873863"},{"TIME_SYSTEM":"UTC","APOAPSIS":"540.816","ARG_OF_PERICENTER":"54.2821","CLASSIFICATION_TYPE":"U","SITE":"AFWTR","RCS_SIZE":"LARGE","PERIAPSIS":"538.487","OBJECT_NAME":"STARLINK-3917","INCLINATION":"53.2153","LAUNCH_DATE":"2022-05-13","GP_ID":"227933211","NORAD_CAT_ID":"52588","COUNTRY_CODE":"US","FILE":"3858534","OBJECT_ID":"2022-051BE","SEMIMAJOR_AXIS":"6917.786","DECAY_DATE":null,"TLE_LINE2":"2 52588  53.2153 348.7472 0001683  54.2821 305.8328 15.08870718 46480","ECCENTRICITY":"0.00016830","MEAN_ANOMALY":"305.8328","BSTAR":"0.00214240000000","TLE_LINE1":"1 52588U 22051BE  23071.03223184  .00034002  00000-0  21424-2 0  9998","OBJECT_TYPE":"PAYLOAD","CENTER_NAME":"EARTH","PERIOD":"95.436","MEAN_MOTION":"15.08870718","REV_AT_EPOCH":"4648","ELEMENT_SET_NO":"999","EPHEMERIS_TYPE":"0","MEAN_MOTION_DOT":"0.00034002","MEAN_MOTION_DDOT":"0.0000000000000","MEAN_ELEMENT_THEORY":"SGP4","EPOCH":"2023-03-12T00:46:24.830976","REF_FRAME":"TEME","RA_OF_ASC_NODE":"348.7472"},{"FILE":"3858743","COUNTRY_CODE":"US","OBJECT_ID":"2022-052A","NORAD_CAT_ID":"52598","PERIAPSIS":"538.678","RCS_SIZE":"LARGE","SITE":"AFETR","CLASSIFICATION_TYPE":"U","GP_ID":"227963185","LAUNCH_DATE":"2022-05-14","INCLINATION":"53.2146","OBJECT_NAME":"STARLINK-4019","APOAPSIS":"540.791","TIME_SYSTEM":"UTC","ARG_OF_PERICENTER":"81.8244","MEAN_MOTION_DDOT":"0.0000000000000","MEAN_ELEMENT_THEORY":"SGP4","EPOCH":"2023-03-12T12:49:05.623104","REF_FRAME":"TEME","RA_OF_ASC_NODE":"151.4909","EPHEMERIS_TYPE":"0","MEAN_MOTION_DOT":"0.00029505","ELEMENT_SET_NO":"999","CENTER_NAME":"EARTH","OBJECT_TYPE":"PAYLOAD","TLE_LINE1":"1 52598U 22052A   23071.53409286  .00029505  00000-0  18640-2 0  9992","BSTAR":"0.00186400000000","REV_AT_EPOCH":"4655","PERIOD":"95.437","MEAN_MOTION":"15.08843452","TLE_LINE2":"2 52598  53.2146 151.4909 0001527  81.8244 278.2922 15.08843452 46555","DECAY_DATE":null,"SEMIMAJOR_AXIS":"6917.870","MEAN_ANOMALY":"278.2922","ECCENTRICITY":"0.00015270"},{"OBJECT_ID":"2022-052B","FILE":"3858743","COUNTRY_CODE":"US","NORAD_CAT_ID":"52599","LAUNCH_DATE":"2022-05-14","OBJECT_NAME":"STARLINK-4024","INCLINATION":"53.2136","GP_ID":"227964435","RCS_SIZE":"LARGE","SITE":"AFETR","CLASSIFICATION_TYPE":"U","PERIAPSIS":"544.016","ARG_OF_PERICENTER":"90.0547","TIME_SYSTEM":"UTC","APOAPSIS":"545.620","REF_FRAME":"TEME","EPOCH":"2023-03-13T00:00:00.999648","RA_OF_ASC_NODE":"144.4330","MEAN_MOTION_DDOT":"0.0000000000000","MEAN_ELEMENT_THEORY":"SGP4","ELEMENT_SET_NO":"999","MEAN_MOTION_DOT":"0.00068183","EPHEMERIS_TYPE":"0","MEAN_MOTION":"15.07181966","PERIOD":"95.543","REV_AT_EPOCH":"130","TLE_LINE1":"1 52599U 22052B   23072.00001157  .00068183  00000-0  44575-2 0  9992","BSTAR":"0.00445750000000","CENTER_NAME":"EARTH","OBJECT_TYPE":"PAYLOAD","MEAN_ANOMALY":"24.6279","ECCENTRICITY":"0.00011580","DECAY_DATE":null,"SEMIMAJOR_AXIS":"6922.953","TLE_LINE2":"2 52599  53.2136 144.4330 0001158  90.0547  24.6279 15.07181966  1309"},{"MEAN_MOTION_DOT":"0.00030759","EPHEMERIS_TYPE":"0","ELEMENT_SET_NO":"999","EPOCH":"2023-03-12T11:59:24.754848","REF_FRAME":"TEME","RA_OF_ASC_NODE":"146.6416","MEAN_MOTION_DDOT":"0.0000000000000","MEAN_ELEMENT_THEORY":"SGP4","ECCENTRICITY":"0.00012810","MEAN_ANOMALY":"270.2030","TLE_LINE2":"2 52600  53.2149 146.6416 0001281  89.9109 270.2030 15.08857195 46626","SEMIMAJOR_AXIS":"6917.828","DECAY_DATE":null,"REV_AT_EPOCH":"4662","PERIOD":"95.436","MEAN_MOTION":"15.08857195","OBJECT_TYPE":"PAYLOAD","CENTER_NAME":"EARTH","BSTAR":"0.00194140000000","TLE_LINE1":"1 52600U 22052C   23071.49959207  .00030759  00000-0  19414-2 0  9997","NORAD_CAT_ID":"52600","OBJECT_ID":"2022-052C","COUNTRY_CODE":"US","FILE":"3858743","ARG_OF_PERICENTER":"89.9109","APOAPSIS":"540.579","TIME_SYSTEM":"UTC","GP_ID":"227964186","OBJECT_NAME":"STARLINK-4026","INCLINATION":"53.2149","LAUNCH_DATE":"2022-05-14","PERIAPSIS":"538.807","SITE":"AFETR","CLASSIFICATION_TYPE":"U","RCS_SIZE":"LARGE"},{"MEAN_MOTION_DDOT":"0.0000000000000","MEAN_ELEMENT_THEORY":"SGP4","EPOCH":"2023-03-12T13:45:22.956768","REF_FRAME":"TEME","RA_OF_ASC_NODE":"146.3090","ELEMENT_SET_NO":"999","EPHEMERIS_TYPE":"0","MEAN_MOTION_DOT":"0.00003274","BSTAR":"0.00022379000000","TLE_LINE1":"1 52601U 22052D   23071.57318237  .00003274  00000-0  22379-3 0  9996","OBJECT_TYPE":"PAYLOAD","CENTER_NAME":"EARTH","PERIOD":"95.438","MEAN_MOTION":"15.08825637","REV_AT_EPOCH":"4663","SEMIMAJOR_AXIS":"6917.924","DECAY_DATE":null,"TLE_LINE2":"2 52601  53.2140 146.3090 0001187 133.4749 226.6342 15.08825637 46631","ECCENTRICITY":"0.00011870","MEAN_ANOMALY":"226.6342","COUNTRY_CODE":"US","FILE":"3858534","OBJECT_ID":"2022-052D","NORAD_CAT_ID":"52601","SITE":"AFETR","CLASSIFICATION_TYPE":"U","RCS_SIZE":"LARGE","PERIAPSIS":"538.968","OBJECT_NAME":"STARLINK-4027","INCLINATION":"53.2140","LAUNCH_DATE":"2022-05-14","GP_ID":"227932711","TIME_SYSTEM":"UTC","APOAPSIS":"540.610","ARG_OF_PERICENTER":"133.4749"}];
